ONEWEB-0687             
1 61595U 24188B   25364.57655214 -.00000009  00000+0 -56415-4 0  9999
2 61595  87.9084  39.4165 0001970 113.6415 246.4924 13.17648695 63695
ONEWEB-0688             
1 61596U 24188C   25364.52930551  .00000060  00000+0  12214-3 0  9998
2 61596  87.9079  39.4259 0002994 109.0522 251.0934 13.17649172 63682
ONEWEB-0689             
1 61597U 24188D   25364.57491920 -.00000089  00000+0 -28596-3 0  9999
2 61597  87.8838  54.6057 0001645 111.1235 249.0069 13.11418303 62350
ONEWEB-0690             
1 61598U 24188E   25364.58509830  .00000328  00000+0  89101-3 0  9994
2 61598  87.8852  54.6211 0002011  79.1125 281.0230 13.11417244 62537
ONEWEB-0691             
1 61599U 24188F   25364.58000953  .00000124  00000+0  31286-3 0  9992
2 61599  87.8851  54.5196 0002167 107.0403 253.0963 13.11417169 62381
ONEWEB-0692             
1 61600U 24188G   25364.60035480  .00000489  00000+0  13438-2 0  9993
2 61600  87.8834  54.6604 0000853 100.4058 259.7166 13.11415390 62374
ONEWEB-0693             
1 61601U 24188H   25364.61704411  .00000052  00000+0  99525-4 0  9991
2 61601  87.9084  39.4287 0002366  79.6071 280.5328 13.17650686 63686
ONEWEB-0695             
1 61602U 24188J   25364.57661490 -.00000032  00000+0 -12672-3 0  9993
2 61602  87.8842  54.6547 0001362 114.0801 246.0469 13.11417964 62367
